ONEWEB-0363             
1 49289U 21090L   24355.45814335 -.00000256  00000+0 -66168-3 0  9990
2 49289  87.9251  22.6177 0002236  88.7014 271.4376 13.20772203158531
ONEWEB-0364             
1 49290U 21090M   24355.49602437 -.00000142  00000+0 -38197-3 0  9999
2 49290  87.9251  22.6376 0001891  90.3797 269.7553 13.20771540159673
ONEWEB-0365             
1 49291U 21090N   24355.58029460 -.00000208  00000+0 -55146-3 0  9995
2 49291  87.9168  53.0462 0001690 100.5719 259.5605 13.19724847154722
ONEWEB-0366             
1 49292U 21090P   24355.57432420  .00000207  00000+0  52321-3 0  9998
2 49292  87.9003  37.8175 0001842  94.9335 265.2005 13.14502243156146
ONEWEB-0367             
1 49293U 21090Q   24355.45657021 -.00000078  00000+0 -22269-3 0  9998
2 49293  87.9251  22.6129 0001706  93.1599 266.9729 13.20771570158056
ONEWEB-0368             
1 49294U 21090R   24355.35398457 -.00000131  00000+0 -35443-3 0  9991
2 49294  87.9253  22.6652 0001922  67.6803 292.4533 13.20772461159197
ONEWEB-0369             
1 49295U 21090S   24355.42391835 -.00000250  00000+0 -65767-3 0  9997
2 49295  87.9175  53.0931 0001698  98.7697 261.3628 13.19725699154694
ONEWEB-0370             
1 49296U 21090T   24355.54179031 -.00000339  00000+0 -86608-3 0  9998
2 49296  87.9252  22.6008 0001882 107.5708 252.5631 13.20771236158101
